HORYU-4                 
1 41340U 16012D   20347.25336362  .00000881  00000-0  59577-4 0  9992
2 41340  31.0053 279.3869 0013802 114.5380 245.6696 15.01673833264621
E-ST@R-II               
1 41459U 16025D   20347.57827260  .00002172  00000-0  11151-3 0  9994
2 41459  98.1193 107.0916 0162138 332.7192  26.5583 15.07092355254263
AAUSAT 4                
1 41460U 16025E   20347.82706046  .00003117  00000-0  15244-3 0  9999
2 41460  98.1166 110.3637 0150282 318.0652  40.9232 15.09687115254545
BEESAT-4                
1 41619U 16040W   20347.20072305  .00002990  00000-0  12387-3 0  9991
2 41619  97.2984  42.3536 0009216 273.0879  86.9304 15.24635973236476
CANX-7                  
1 41788U 16059F   20347.82827647  .00012776  00000-0  16246-2 0  9993
2 41788  98.2590  80.5788 0027402  96.8531 263.5996 14.81483324226194
RAVAN                   
1 41849U 16067B   20347.28025685  .00001441  00000-0  12474-3 0  9999
2 41849  97.9496 100.3326 0009080  25.1005 335.0656 14.98782183223250
CELTEE 1                
1 41850U 16067C   20347.24237710  .00000386  00000-0  38542-4 0  9993
2 41850  97.9398  97.4731 0008955  23.6788 336.4844 14.97298261223106
OPTICUBE 04             
1 41851U 16067D   20347.27201697  .00000597  00000-0  57176-4 0  9990
2 41851  97.9399  97.0201 0009580  28.6586 331.5160 14.97009726223082
AEROCUBE 8D             
1 41852U 16067E   20347.28742038 -.00000050  00000-0  96105-6 0  9993
2 41852  97.9399  96.8847 0010240  25.7277 334.4451 14.97045719223061
AEROCUBE 8C             
1 41853U 16067F   20347.85791253  .00001031  00000-0  94824-4 0  9993
2 41853  97.9392  97.3501 0010362  27.3858 332.7907 14.97009587223145
PROMETHEUS 2-1          
1 41854U 16067G   20347.85287643  .00001122  00000-0  10175-3 0  9994
2 41854  97.9399  97.7951 0010382  25.0883 335.0841 14.97399640223168
PROMETHEUS 2-3          
1 41855U 16067H   20347.31755856  .00001058  00000-0  96170-4 0  9990
2 41855  97.9398  97.2927 0010579  26.6453 333.5309 14.97410182223082
INS-1B                  
1 41954U 17008G   20347.75554232  .00002783  00000-0  11301-3 0  9997
2 41954  97.3345  48.7984 0009824  40.7335 319.4636 15.25375277212541
BGUSAT                  
1 41999U 17008BD  20347.15241267  .00005252  00000-0  19171-3 0  9998
2 41999  97.3490  53.4175 0008711  50.1772 310.0233 15.28525646212089
DIDO-2                  
1 42000U 17008BE  20347.17193795  .00001691  00000-0  70857-4 0  9998
2 42000  97.3348  48.6489 0009745  59.6624 300.5577 15.24857099211841
PEASSS                  
1 42015U 17008BV  20347.14199206  .00002611  00000-0  10383-3 0  9994
2 42015  97.3382  50.6018 0007664  63.4747 296.7277 15.26151953212441
AL-FARABI 1             
1 42016U 17008BW  20347.12402221  .00003372  00000-0  12936-3 0  9998
2 42016  97.3422  51.9456 0007421  62.2872 297.9119 15.27147772212638
NAYIF-1 (EO-88)         
1 42017U 17008BX  20347.22883361  .00003315  00000-0  12704-3 0  9998
2 42017  97.3416  52.0577 0007466  61.6053 298.5938 15.27193944212673
UCLSAT                  
1 42765U 17036A   20347.12409775  .00002748  00000-0  11583-3 0  9994
2 42765  97.2786  36.4026 0012650 116.2675 243.9864 15.24080013193630
LITUANICASAT-2          
1 42768U 17036D   20347.15242288  .00004399  00000-0  17859-3 0  9990
2 42768  97.2854  36.7269 0015886 107.3887 252.9090 15.24988096192910
AALTO-1                 
1 42775U 17036L   20347.69056779  .00001540  00000-0  69821-4 0  9997
2 42775  97.2753  34.2434 0015300 110.4397 249.8484 15.22192429192787
URSA MAIOR              
1 42776U 17036M   20347.13109756  .00001742  00000-0  78104-4 0  9999
2 42776  97.2767  34.0678 0015077 111.8372 248.4470 15.22410908192718
COMPASS 2               
1 42777U 17036N   20347.19992149  .00003341  00000-0  13780-3 0  9997
2 42777  97.2839  37.1048 0013624 108.2793 251.9929 15.24659531192871
DIAMOND RED             
1 42783U 17036U   20347.66314674  .00002026  00000-0  88144-4 0  9993
2 42783  97.2785  36.0009 0013404 117.3631 242.8972 15.23282892192879
PEGASUS                 
1 42784U 17036V   20347.18710154  .00002377  00000-0  10163-3 0  9998
2 42784  97.2792  36.0790 0013212 117.4122 242.8461 15.23725446192834
DIAMOND GREEN           
1 42785U 17036W   20347.20235101  .00002075  00000-0  90246-4 0  9992
2 42785  97.2788  35.5950 0013269 119.3178 240.9387 15.23279885192877
DIAMOND BLUE            
1 42786U 17036X   20347.85821686  .00001987  00000-0  86550-4 0  9997
2 42786  97.2786  36.2253 0013148 117.4779 242.7797 15.23283032192898
NUDTSAT                 
1 42787U 17036Y   20347.40798510  .00003550  00000-0  14354-3 0  9998
2 42787  97.2830  38.1318 0012580 111.7570 248.4072 15.25298884192811
SUCHAI                  
1 42788U 17036Z   20347.14292246  .00003011  00000-0  12555-3 0  9998
2 42788  97.2802  36.8005 0012740 115.4226 244.8332 15.24372600192947
SKCUBE                  
1 42789U 17036AA  20347.14364142  .00002762  00000-0  11608-3 0  9994
2 42789  97.2795  36.5941 0012647 115.8244 244.4299 15.24171629192851
VZLUSAT-1               
1 42790U 17036AB  20347.20241827  .00003571  00000-0  14451-3 0  9995
2 42790  97.2827  37.9234 0012116 112.9071 247.3448 15.25269076192938
ROBUSTA-1B              
1 42792U 17036AD  20347.20557873  .00002676  00000-0  11189-3 0  9998
2 42792  97.2799  36.9642 0012228 115.7329 244.5172 15.24380046192899
CICERO 6                
1 42793U 17036AE  20347.67120263  .00001731  00000-0  75208-4 0  9993
2 42793  97.2765  36.5710 0011568 116.8438 243.3983 15.23540264192991
D-SAT                   
1 42794U 17036AF  20347.11325527  .00000422  00000-0  41376-4 0  9998
2 42794  97.4771  10.8177 0127133 131.4272 229.7954 14.91393211189138
CORVUS BC2              
1 42846U 17042X   20347.41682192  .00000464  00000-0  50665-4 0  9997
2 42846  97.4970 222.6829 0010781  49.6688 310.5472 14.92191264185949
CORVUS BC1              
1 42847U 17042Y   20347.40039409  .00000468  00000-0  51004-4 0  9996
2 42847  97.4974 222.8697 0010424  49.3071 310.9052 14.92292799185949
MIRATA                  
1 43015U 17073C   20347.70954881  .00001342  00000-0  10818-3 0  9990
2 43015  97.7132 253.1082 0251368 186.5696 173.2202 14.80120947165589
MAKERSAT 0              
1 43016U 17073D   20347.72908831  .00000917  00000-0  75866-4 0  9999
2 43016  97.7167 253.2613 0254622 188.0402 171.6695 14.79554426165553
DELLINGR (RBLE)         
1 43021U 98067NJ  20347.74984878  .00043453  00000-0  24267-3 0  9994
2 43021  51.6329  84.6432 0002453 351.9572   8.1389 15.78930266174942
AEROCUBE 7B (OCSD B)    
1 43042U 17071F   20347.19355180  .00009470  00000-0  20259-3 0  9998
2 43042  51.6374 273.4748 0003591 353.0266   7.0670 15.45509627169841
AEROCUBE 7C (OCSD C)    
1 43043U 17071G   20347.07093870  .00009573  00000-0  20512-3 0  9997
2 43043  51.6372 274.1710 0003841 354.7997   5.2950 15.45448607169799
CHEFSAT                 
1 43044U 17071H   20347.83672486  .00018478  00000-0  30360-3 0  9994
2 43044  51.6365 248.1368 0002538  20.5418 339.5674 15.52438119170210
ASGARDIA 1              
1 43049U 17071N   20347.06405126  .00009096  00000-0  19569-3 0  9993
2 43049  51.6386 273.4707 0002132  27.7418 332.3682 15.45398196169800
ISARA                   
1 43050U 17071P   20347.18646169  .00017155  00000-0  29881-3 0  9995
2 43050  51.6347 255.6249 0001779  54.4490 305.6664 15.50852099170050
PROPCUBE 2 (FAUNA)      
1 43052U 17071R   20346.99158030  .00009782  00000-0  20547-3 0  9997
2 43052  51.6377 271.4999 0002021  26.9307 333.1785 15.46011244169811
CORVUS BC3              
1 43118U 18004H   20347.74835954  .00001798  00000-0  77664-4 0  9990
2 43118  97.4265  56.4082 0011210 139.6172 220.5900 15.23739272162144
MICROMAS-2A             
1 43131U 18004W   20347.19976047  .00004323  00000-0  17010-3 0  9998
2 43131  97.4333  58.2907 0009892 137.6244 222.5760 15.26133544162196
SPACEBEE-4              
1 43139U 18004AE  20347.65637546  .00005743  00000-0  21401-3 0  9991
2 43139  97.4380  60.4091 0009260 136.1410 224.0566 15.27807055162347
SPACEBEE-3              
1 43140U 18004AF  20347.15540445  .00008350  00000-0  29867-3 0  9990
2 43140  97.4403  60.9144 0008887 135.2760 224.9198 15.29018153162335
SPACEBEE-2              
1 43141U 18004AG  20347.48741820  .00008324  00000-0  29393-3 0  9992
2 43141  97.4419  61.6325 0008848 133.4509 226.7468 15.29439912162408
SPACEBEE-1              
1 43142U 18004AH  20347.21186559  .00008667  00000-0  30141-3 0  9999
2 43142  97.4427  61.7392 0008722 133.8770 226.3192 15.29928237162377
CICERO 7                
1 43143U 18004AJ  20347.19936642  .00004052  00000-0  15982-3 0  9993
2 43143  97.4309  58.4235 0008049 144.3377 215.8400 15.26104415162217
GOMX-4B                 
1 43196U 18015E   20347.83097897  .00002001  00000-0  83724-4 0  9996
2 43196  97.4608 115.3114 0018126 191.5775 168.5048 15.24622928159073
GOMX-4A                 
1 43197U 18015F   20347.89940981  .00001885  00000-0  78407-4 0  9995
2 43197  97.4596 115.5294 0018293 193.2161 281.8699 15.24893227159101
UBAKUSAT                
1 43467U 98067NQ  20347.48153997  .00383103  78023-4  55360-3 0  9990
2 43467  51.6269  74.9582 0007224 356.3415   3.7543 16.04705444148316
TEMPEST-D               
1 43547U 98067NV  20346.87997697  .00053014  00000-0  45925-3 0  9991
2 43547  51.6338 133.7706 0004417 350.3182   9.7728 15.68602328137292
RAINCUBE                
1 43548U 98067NW  20347.66000874  .00495209  12878-3  63579-3 0  9992
2 43548  51.6239  82.8433 0008427 353.2966   6.7933 16.06572452138485
HALOSAT                 
1 43549U 98067NX  20347.65305576  .00282893  43524-4  62435-3 0  9995
2 43549  51.6318  86.7847 0005845 355.7349   4.3609 15.97502651137991
EQUISAT                 
1 43552U 98067PA  20347.72245485  .00418324  91530-4  59953-3 0  9990
2 43552  51.6235  81.8964 0007888   0.4786 359.6232 16.04819877138435
